STARLINK-3127
1 19450C 21104AU  21326.07836713 -.00870947  00000-0 -31593-2 0  3263
2 19450  53.2178  91.1583 0026069  65.3025 208.5147 15.88095339    10
